{"type": "FeatureCollection", "features": [ {"type": "Feature", "properties": {"norad_id": 30942, "name": "FENGYUN 1C DEB", "group": "fengyun-1c-debris", "lat": -23.659200276471907, "lon": 157.90253162332118, "alt_km": 843.6127445909997, "timestamp": "2025-12-09T09:46:47.925554+00:00", "meta": {"OBJECT_NAME": "FENGYUN 1C DEB", "OBJECT_ID": "1999-025BAG", "EPOCH": "2025-12-08T11:28:32.856384", "MEAN_MOTION": 14.14832557, "ECCENTRICITY": 0.01379282, "INCLINATION": 98.6796, "RA_OF_ASC_NODE": 340.8359, "ARG_OF_PERICENTER": 118.4015, "MEAN_ANOMALY": 33.0103, "EPHEMERIS_TYPE": 0, "CLASSIFICATION_TYPE": "U", "NORAD_CAT_ID": 30942, "ELEMENT_SET_NO": 999, "REV_AT_EPOCH": 96584, "BSTAR": 0.00036298233, "MEAN_MOTION_DOT": 7.26e-06, "MEAN_MOTION_DDOT": 0}, "tle": {"line1": "1 30942U 99025BAG 25342.47815806  .00000726  00000+0  36298-3 0  9993", "line2": "2 30942  98.6796 340.8359 0137928 118.4015  33.0103 14.14832557965849"}}, "geometry": {"type": "Point", "coordinates": [157.90253162332118, -23.659200276471907]}}, {"type": "Feature", "properties": {"norad_id": 30943, "name": "FENGYUN 1C DEB", "group": "fengyun-1c-debris", "lat": -55.104097548645825, "lon": 10.25921253971727, "alt_km": 909.4363906640865, "timestamp": "2025-12-09T09:46:47.925564+00:00", "meta": {"OBJECT_NAME": "FENGYUN 1C DEB", "OBJECT_ID": "1999-025BAH", "EPOCH": "2025-12-08T11:49:13.121472", "MEAN_MOTION": 14.04481374, "ECCENTRICITY": 0.005101, "INCLINATION": 98.797, "RA_OF_ASC_NODE": 356.5458, "ARG_OF_PERICENTER": 77.436, "MEAN_ANOMALY": 283.2506, "EPHEMERIS_TYPE": 0, "CLASSIFICATION_TYPE": "U", "NORAD_CAT_ID": 30943, "ELEMENT_SET_NO": 999, "REV_AT_EPOCH": 95682, "BSTAR": 0.00042279872, "MEAN_MOTION_DOT": 6.4e-06, "MEAN_MOTION_DDOT": 0}, "tle": {"line1": "1 30943U 99025BAH 25342.49251298  .00000640  00000+0  42280-3 0  9998", "line2": "2 30943  98.7970 356.5458 0051010  77.4360 283.2506 14.04481374956823"}}, "geometry": {"type": "Point", "coordinates": [10.25921253971727, -55.104097548645825]}}, {"type": "Feature", "properties": {"norad_id": 30944, "name": "FENGYUN 1C DEB", "group": "fengyun-1c-debris", "lat": -80.89725189657152, "lon": 115.46705313565462, "alt_km": 825.3246831413398, "timestamp": "2025-12-09T09:46:47.925575+00:00", "meta": {"OBJECT_NAME": "FENGYUN 1C DEB", "OBJECT_ID": "1999-025BAJ", "EPOCH": "2025-12-08T15:02:46.006368", "MEAN_MOTION": 14.52434851, "ECCENTRICITY": 0.01493008, "INCLINATION": 98.8511, "RA_OF_ASC_NODE": 38.1017, "ARG_OF_PERICENTER": 113.0137, "MEAN_ANOMALY": 39.4512, "EPHEMERIS_TYPE": 0, "CLASSIFICATION_TYPE": "U", "NORAD_CAT_ID": 30944, "ELEMENT_SET_NO": 999, "REV_AT_EPOCH": 99016, "BSTAR": 0.00030972597, "MEAN_MOTION_DOT": 1.405e-05, "MEAN_MOTION_DDOT": 0}, "tle": {"line1": "1 30944U 99025BAJ 25342.62692137  .00001405  00000+0  30973-3 0  9991", "line2": "2 30944  98.8511  38.1017 0149300 113.0137  39.4512 14.52434851990163"}}, "geometry": {"type": "Point", "coordinates": [115.46705313565462, -80.89725189657152]}}, {"type": "Feature", "properties": {"norad_id": 30945, "name": "FENGYUN 1C DEB", "group": "fengyun-1c-debris", "lat": -63.56148475603841, "lon": 11.245775144389608, "alt_km": 808.4183395549526, "timestamp": "2025-12-09T09:46:47.925586+00:00", "meta": {"OBJECT_NAME": "FENGYUN 1C DEB", "OBJECT_ID": "1999-025BAK", "EPOCH": "2025-12-08T12:50:52.676160", "MEAN_MOTION": 14.29657767, "ECCENTRICITY": 0.00307925, "INCLINATION": 99.3875, "RA_OF_ASC_NODE": 350.874, "ARG_OF_PERICENTER": 49.9915, "MEAN_ANOMALY": 78.8544, "EPHEMERIS_TYPE": 0, "CLASSIFICATION_TYPE": "U", "NORAD_CAT_ID": 30945, "ELEMENT_SET_NO": 999, "REV_AT_EPOCH": 96377, "BSTAR": 0.0025476106, "MEAN_MOTION_DOT": 6.517e-05, "MEAN_MOTION_DDOT": 0}, "tle": {"line1": "1 30945U 99025BAK 25342.53533190  .00006517  00000+0  25476-2 0  9995", "line2": "2 30945  99.3875 350.8740 0030792  49.9915  78.8544 14.29657767963771"}}, "geometry": {"type": "Point", "coordinates": [11.245775144389608, -63.56148475603841]}}, {"type": "Feature", "properties": {"norad_id": 30946, "name": "FENGYUN 1C DEB", "group": "fengyun-1c-debris", "lat": 28.623347762337122, "lon": 93.38100930392615, "alt_km": 793.5451518991167, "timestamp": "2025-12-09T09:46:47.925597+00:00", "meta": {"OBJECT_NAME": "FENGYUN 1C DEB", "OBJECT_ID": "1999-025BAL", "EPOCH": "2025-12-08T19:25:20.640288", "MEAN_MOTION": 14.48110098, "ECCENTRICITY": 0.00892676, "INCLINATION": 99.0399, "RA_OF_ASC_NODE": 97.7259, "ARG_OF_PERICENTER": 204.65, "MEAN_ANOMALY": 307.6535, "EPHEMERIS_TYPE": 0, "CLASSIFICATION_TYPE": "U", "NORAD_CAT_ID": 30946, "ELEMENT_SET_NO": 999, "REV_AT_EPOCH": 98294, "BSTAR": 0.0015524219, "MEAN_MOTION_DOT": 6.027e-05, "MEAN_MOTION_DDOT": 0}, "tle": {"line1": "1 30946U 99025BAL 25342.80926667  .00006027  00000+0  15524-2 0  9990", "line2": "2 30946  99.0399  97.7259 0089267 204.6500 307.6535 14.48110098982948"}}, "geometry": {"type": "Point", "coordinates": [93.38100930392615, 28.623347762337122]}}, {"type": "Feature", "properties": {"norad_id": 30947, "name": "FENGYUN 1C DEB", "group": "fengyun-1c-debris", "lat": -42.77395479053207, "lon": 44.71085075793919, "alt_km": 714.9711682309071, "timestamp": "2025-12-09T09:46:47.925607+00:00", "meta": {"OBJECT_NAME": "FENGYUN 1C DEB", "OBJECT_ID": "1999-025BAM", "EPOCH": "2025-12-08T16:02:15.904896", "MEAN_MOTION": 14.38030564, "ECCENTRICITY": 0.00957288, "INCLINATION": 98.8087, "RA_OF_ASC_NODE": 232.2012, "ARG_OF_PERICENTER": 259.9143, "MEAN_ANOMALY": 99.1233, "EPHEMERIS_TYPE": 0, "CLASSIFICATION_TYPE": "U", "NORAD_CAT_ID": 30947, "ELEMENT_SET_NO": 999, "REV_AT_EPOCH": 98434, "BSTAR": 0.00061181175, "MEAN_MOTION_DOT": 1.903e-05, "MEAN_MOTION_DDOT": 0}, "tle": {"line1": "1 30947U 99025BAM 25342.66823964  .00001903  00000+0  61181-3 0  9990", "line2": "2 30947  98.8087 232.2012 0095728 259.9143  99.1233 14.38030564984340"}}, "geometry": {"type": "Point", "coordinates": [44.71085075793919, -42.77395479053207]}}, {"type": "Feature", "properties": {"norad_id": 30949, "name": "FENGYUN 1C DEB", "group": "fengyun-1c-debris", "lat": 76.97276127842973, "lon": -63.5751111021775, "alt_km": 880.7729870032354, "timestamp": "2025-12-09T09:46:47.925618+00:00", "meta": {"OBJECT_NAME": "FENGYUN 1C DEB", "OBJECT_ID": "1999-025BAP", "EPOCH": "2025-12-08T20:22:49.182240", "MEAN_MOTION": 14.14042161, "ECCENTRICITY": 0.01164888, "INCLINATION": 98.6974, "RA_OF_ASC_NODE": 337.3029, "ARG_OF_PERICENTER": 320.9943, "MEAN_ANOMALY": 157.5832, "EPHEMERIS_TYPE": 0, "CLASSIFICATION_TYPE": "U", "NORAD_CAT_ID": 30949, "ELEMENT_SET_NO": 999, "REV_AT_EPOCH": 96461, "BSTAR": 0.0004739781, "MEAN_MOTION_DOT": 9.18e-06, "MEAN_MOTION_DDOT": 0}, "tle": {"line1": "1 30949U 99025BAP 25342.84918035  .00000918  00000+0  47398-3 0  9995", "line2": "2 30949  98.6974 337.3029 0116488 320.9943 157.5832 14.14042161964616"}}, "geometry": {"type": "Point", "coordinates": [-63.5751111021775, 76.97276127842973]}}, {"type": "Feature", "properties": {"norad_id": 30954, "name": "FENGYUN 1C DEB", "group": "fengyun-1c-debris", "lat": 67.8891209056735, "lon": -74.22685056259425, "alt_km": 829.036364376554, "timestamp": "2025-12-09T09:46:47.925628+00:00", "meta": {"OBJECT_NAME": "FENGYUN 1C DEB", "OBJECT_ID": "1999-025BAU", "EPOCH": "2025-12-08T06:22:12.789984", "MEAN_MOTION": 14.1489559, "ECCENTRICITY": 0.01286509, "INCLINATION": 98.7126, "RA_OF_ASC_NODE": 82.4831, "ARG_OF_PERICENTER": 200.0608, "MEAN_ANOMALY": 217.7229, "EPHEMERIS_TYPE": 0, "CLASSIFICATION_TYPE": "U", "NORAD_CAT_ID": 30954, "ELEMENT_SET_NO": 999, "REV_AT_EPOCH": 96324, "BSTAR": 0.001979191, "MEAN_MOTION_DOT": 4.1e-05, "MEAN_MOTION_DDOT": 0}, "tle": {"line1": "1 30954U 99025BAU 25342.26542581  .00004100  00000+0  19792-2 0  9999", "line2": "2 30954  98.7126  82.4831 0128650 200.0608 217.7229 14.14895590963240"}}, "geometry": {"type": "Point", "coordinates": [-74.22685056259425, 67.8891209056735]}}, {"type": "Feature", "properties": {"norad_id": 30956, "name": "FENGYUN 1C DEB", "group": "fengyun-1c-debris", "lat": 61.16365698335566, "lon": -146.24851245464302, "alt_km": 859.2866154854219, "timestamp": "2025-12-09T09:46:47.925639+00:00", "meta": {"OBJECT_NAME": "FENGYUN 1C DEB", "OBJECT_ID": "1999-025BAW", "EPOCH": "2025-12-08T13:34:37.401024", "MEAN_MOTION": 14.14186518, "ECCENTRICITY": 0.0049321, "INCLINATION": 98.76, "RA_OF_ASC_NODE": 16.663, "ARG_OF_PERICENTER": 355.1464, "MEAN_ANOMALY": 158.7057, "EPHEMERIS_TYPE": 0, "CLASSIFICATION_TYPE": "U", "NORAD_CAT_ID": 30956, "ELEMENT_SET_NO": 999, "REV_AT_EPOCH": 96248, "BSTAR": 0.0015885, "MEAN_MOTION_DOT": 3.021e-05, "MEAN_MOTION_DDOT": 0}, "tle": {"line1": "1 30956U 99025BAW 25342.56571066  .00003021  00000+0  15885-2 0  9994", "line2": "2 30956  98.7600  16.6630 0049321 355.1464 158.7057 14.14186518962485"}}, "geometry": {"type": "Point", "coordinates": [-146.24851245464302, 61.16365698335566]}}, {"type": "Feature", "properties": {"norad_id": 30960, "name": "FENGYUN 1C DEB", "group": "fengyun-1c-debris", "lat": 31.634618207294587, "lon": 93.46003550978836, "alt_km": 774.8573120045794, "timestamp": "2025-12-09T09:46:47.925661+00:00", "meta": {"OBJECT_NAME": "FENGYUN 1C DEB", "OBJECT_ID": "1999-025BBA", "EPOCH": "2025-12-08T13:58:54.365088", "MEAN_MOTION": 14.6673386, "ECCENTRICITY": 0.0196404, "INCLINATION": 99.0013, "RA_OF_ASC_NODE": 98.1587, "ARG_OF_PERICENTER": 174.9117, "MEAN_ANOMALY": 185.4143, "EPHEMERIS_TYPE": 0, "CLASSIFICATION_TYPE": "U", "NORAD_CAT_ID": 30960, "ELEMENT_SET_NO": 999, "REV_AT_EPOCH": 98637, "BSTAR": 0.0021121, "MEAN_MOTION_DOT": 0.00015679, "MEAN_MOTION_DDOT": 0}, "tle": {"line1": "1 30960U 99025BBA 25342.58257367  .00015679  00000+0  21121-2 0  9998", "line2": "2 30960  99.0013  98.1587 0196404 174.9117 185.4143 14.66733860986377"}}, "geometry": {"type": "Point", "coordinates": [93.46003550978836, 31.634618207294587]}}]}